FENGYUN 1C DEB          
1 32120U 99025CRN 17337.36660543  .00006063  00000-0  49665-3 0  9995
2 32120  98.8789 300.7024 0057037  97.6639 263.1063 14.98467238554329
